start=new Date('2022-05-20T00:00:00.000Z').valueOf();
sats=[{"EPHEMERIS_TYPE":"0","TLE_LINE2":"2 47835  53.0567  17.9567 0001481  72.7733 287.3418 15.06387909 66635","TLE_LINE1":"1 47835U 21018BA  22139.37968244  .00001577  00000-0  12475-3 0  9991","SITE":"AFETR","NORAD_CAT_ID":"47835","OBJECT_ID":"2021-018BA","MEAN_MOTION_DOT":"0.00001577","PERIOD":"95.593","MEAN_ANOMALY":"287.3418","REV_AT_EPOCH":"6663","OBJECT_NAME":"STARLINK-2425","BSTAR":"0.00012475000000","ARG_OF_PERICENTER":"72.7733","PERIAPSIS":"546.225","CLASSIFICATION_TYPE":"U","REF_FRAME":"TEME","RA_OF_ASC_NODE":"17.9567","DECAY_DATE":null,"LAUNCH_DATE":"2021-03-11","APOAPSIS":"548.276","COUNTRY_CODE":"US","OBJECT_TYPE":"PAYLOAD","MEAN_MOTION_DDOT":"0.0000000000000","RCS_SIZE":"LARGE","ELEMENT_SET_NO":"999","TIME_SYSTEM":"UTC","CENTER_NAME":"EARTH","ECCENTRICITY":"0.00014810","GP_ID":"203949173","EPOCH":"2022-05-19T09:06:44.562816","INCLINATION":"53.0567","FILE":"3453140","MEAN_MOTION":"15.06387909","MEAN_ELEMENT_THEORY":"SGP4","SEMIMAJOR_AXIS":"6925.386"},{"RCS_SIZE":"LARGE","ELEMENT_SET_NO":"999","TIME_SYSTEM":"UTC","CENTER_NAME":"EARTH","ECCENTRICITY":"0.00018020","GP_ID":"203955958","INCLINATION":"53.0567","EPOCH":"2022-05-19T08:59:26.461248","FILE":"3453387","MEAN_MOTION":"15.06386564","SEMIMAJOR_AXIS":"6925.390","MEAN_ELEMENT_THEORY":"SGP4","LAUNCH_DATE":"2021-03-11","APOAPSIS":"548.503","COUNTRY_CODE":"US","OBJECT_TYPE":"PAYLOAD","MEAN_MOTION_DDOT":"0.0000000000000","REV_AT_EPOCH":"6670","OBJECT_NAME":"STARLINK-2426","BSTAR":"0.00000552980000","ARG_OF_PERICENTER":"60.0149","PERIAPSIS":"546.007","CLASSIFICATION_TYPE":"U","REF_FRAME":"TEME","RA_OF_ASC_NODE":"12.9932","DECAY_DATE":null,"EPHEMERIS_TYPE":"0","TLE_LINE1":"1 47836U 21018BB  22139.37461182 -.00000199  00000-0  55298-5 0  9993","TLE_LINE2":"2 47836  53.0567  12.9932 0001802  60.0149 300.1019 15.06386564 66700","NORAD_CAT_ID":"47836","SITE":"AFETR","OBJECT_ID":"2021-018BB","MEAN_MOTION_DOT":"-0.00000199","PERIOD":"95.593","MEAN_ANOMALY":"300.1019"},{"DECAY_DATE":null,"RA_OF_ASC_NODE":"349.9339","REF_FRAME":"TEME","PERIAPSIS":"545.945","CLASSIFICATION_TYPE":"U","ARG_OF_PERICENTER":"57.2052","BSTAR":"0.00035446000000","OBJECT_NAME":"STARLINK-2427","REV_AT_EPOCH":"6709","MEAN_ANOMALY":"302.9121","PERIOD":"95.593","MEAN_MOTION_DOT":"0.00004999","OBJECT_ID":"2021-018BC","NORAD_CAT_ID":"47837","SITE":"AFETR","TLE_LINE1":"1 47837U 21018BC  22140.05561758  .00004999  00000-0  35446-3 0  9993","TLE_LINE2":"2 47837  53.0545 349.9339 0001911  57.2052 302.9121 15.06382121 67095","EPHEMERIS_TYPE":"0","SEMIMAJOR_AXIS":"6925.403","MEAN_ELEMENT_THEORY":"SGP4","MEAN_MOTION":"15.06382121","FILE":"3453958","EPOCH":"2022-05-20T01:20:05.358912","INCLINATION":"53.0545","GP_ID":"203994099","ECCENTRICITY":"0.00019110","CENTER_NAME":"EARTH","TIME_SYSTEM":"UTC","ELEMENT_SET_NO":"999","RCS_SIZE":"LARGE","MEAN_MOTION_DDOT":"0.0000000000000","OBJECT_TYPE":"PAYLOAD","COUNTRY_CODE":"US","APOAPSIS":"548.592","LAUNCH_DATE":"2021-03-11"},{"MEAN_MOTION_DOT":"0.00006557","MEAN_ANOMALY":"305.6084","PERIOD":"95.593","EPHEMERIS_TYPE":"0","OBJECT_ID":"2021-018BD","SITE":"AFETR","NORAD_CAT_ID":"47838","TLE_LINE1":"1 47838U 21018BD  22140.06852337  .00006557  00000-0  45878-3 0  9993","TLE_LINE2":"2 47838  53.0555   9.8748 0002003  54.5092 305.6084 15.06392790 66810","REF_FRAME":"TEME","CLASSIFICATION_TYPE":"U","PERIAPSIS":"545.849","DECAY_DATE":null,"RA_OF_ASC_NODE":"9.8748","OBJECT_NAME":"STARLINK-2429","REV_AT_EPOCH":"6681","BSTAR":"0.00045878000000","ARG_OF_PERICENTER":"54.5092","OBJECT_TYPE":"PAYLOAD","COUNTRY_CODE":"US","MEAN_MOTION_DDOT":"0.0000000000000","APOAPSIS":"548.623","LAUNCH_DATE":"2021-03-11","GP_ID":"203992559","ECCENTRICITY":"0.00020030","MEAN_ELEMENT_THEORY":"SGP4","SEMIMAJOR_AXIS":"6925.371","MEAN_MOTION":"15.06392790","FILE":"3453874","INCLINATION":"53.0555","EPOCH":"2022-05-20T01:38:40.419168","ELEMENT_SET_NO":"999","RCS_SIZE":"LARGE","CENTER_NAME":"EARTH","TIME_SYSTEM":"UTC"},{"SEMIMAJOR_AXIS":"6925.377","MEAN_ELEMENT_THEORY":"SGP4","MEAN_MOTION":"15.06390588","FILE":"3453812","INCLINATION":"53.0555","EPOCH":"2022-05-19T21:33:10.541088","GP_ID":"203987582","ECCENTRICITY":"0.00015000","CENTER_NAME":"EARTH","TIME_SYSTEM":"UTC","ELEMENT_SET_NO":"999","RCS_SIZE":"LARGE","MEAN_MOTION_DDOT":"0.0000000000000","OBJECT_TYPE":"PAYLOAD","COUNTRY_CODE":"US","LAUNCH_DATE":"2021-03-11","APOAPSIS":"548.281","DECAY_DATE":null,"RA_OF_ASC_NODE":"340.6226","REF_FRAME":"TEME","PERIAPSIS":"546.204","CLASSIFICATION_TYPE":"U","ARG_OF_PERICENTER":"81.1549","BSTAR":"0.00003767000000","OBJECT_NAME":"STARLINK-2431","REV_AT_EPOCH":"6755","MEAN_ANOMALY":"278.9609","PERIOD":"95.593","MEAN_MOTION_DOT":"0.00000280","OBJECT_ID":"2021-018BE","SITE":"AFETR","NORAD_CAT_ID":"47839","TLE_LINE1":"1 47839U 21018BE  22139.89803867  .00000280  00000-0  37670-4 0  9996","TLE_LINE2":"2 47839  53.0555 340.6226 0001500  81.1549 278.9609 15.06390588 67552","EPHEMERIS_TYPE":"0"},{"TIME_SYSTEM":"UTC","CENTER_NAME":"EARTH","ELEMENT_SET_NO":"999","RCS_SIZE":"LARGE","MEAN_MOTION":"15.06396578","SEMIMAJOR_AXIS":"6925.359","MEAN_ELEMENT_THEORY":"SGP4","EPOCH":"2022-05-19T20:12:13.700736","INCLINATION":"53.0566","FILE":"3453812","ECCENTRICITY":"0.00017440","GP_ID":"203988332","LAUNCH_DATE":"2021-03-11","APOAPSIS":"548.432","MEAN_MOTION_DDOT":"0.0000000000000","OBJECT_TYPE":"PAYLOAD","COUNTRY_CODE":"US","BSTAR":"0.00006795700000","ARG_OF_PERICENTER":"64.4699","OBJECT_NAME":"STARLINK-2432","REV_AT_EPOCH":"6739","DECAY_DATE":null,"RA_OF_ASC_NODE":"350.8942","CLASSIFICATION_TYPE":"U","PERIAPSIS":"546.016","REF_FRAME":"TEME","OBJECT_ID":"2021-018BF","TLE_LINE1":"1 47840U 21018BF  22139.84182524  .00000731  00000-0  67957-4 0  9995","TLE_LINE2":"2 47840  53.0566 350.8942 0001744  64.4699 295.6470 15.06396578 67393","NORAD_CAT_ID":"47840","SITE":"AFETR","EPHEMERIS_TYPE":"0","MEAN_ANOMALY":"295.6470","PERIOD":"95.592","MEAN_MOTION_DOT":"0.00000731"},{"REV_AT_EPOCH":"6701","OBJECT_NAME":"STARLINK-2433","BSTAR":"0.00008809300000","ARG_OF_PERICENTER":"79.2966","CLASSIFICATION_TYPE":"U","PERIAPSIS":"546.297","REF_FRAME":"TEME","RA_OF_ASC_NODE":"352.1007","DECAY_DATE":null,"EPHEMERIS_TYPE":"0","TLE_LINE1":"1 47841U 21018BG  22139.57275087  .00001031  00000-0  88093-4 0  9991","TLE_LINE2":"2 47841  53.0560 352.1007 0001333  79.2966 280.8173 15.06397830 67017","NORAD_CAT_ID":"47841","SITE":"AFETR","OBJECT_ID":"2021-018BG","MEAN_MOTION_DOT":"0.00001031","PERIOD":"95.592","MEAN_ANOMALY":"280.8173","RCS_SIZE":"LARGE","ELEMENT_SET_NO":"999","TIME_SYSTEM":"UTC","CENTER_NAME":"EARTH","ECCENTRICITY":"0.00013330","GP_ID":"203955476","INCLINATION":"53.0560","EPOCH":"2022-05-19T13:44:45.675168","FILE":"3453389","MEAN_MOTION":"15.06397830","SEMIMAJOR_AXIS":"6925.355","MEAN_ELEMENT_THEORY":"SGP4","LAUNCH_DATE":"2021-03-11","APOAPSIS":"548.143","COUNTRY_CODE":"US","OBJECT_TYPE":"PAYLOAD","MEAN_MOTION_DDOT":"0.0000000000000"},{"ARG_OF_PERICENTER":"59.1961","BSTAR":"0.00008580700000","OBJECT_NAME":"STARLINK-2434","REV_AT_EPOCH":"6691","DECAY_DATE":null,"RA_OF_ASC_NODE":"24.2471","REF_FRAME":"TEME","PERIAPSIS":"546.129","CLASSIFICATION_TYPE":"U","OBJECT_ID":"2021-018BH","SITE":"AFETR","NORAD_CAT_ID":"47842","TLE_LINE2":"2 47842  53.0564  24.2471 0001600  59.1961 300.9186 15.06392269 66910","TLE_LINE1":"1 47842U 21018BH  22139.09450290  .00000997  00000-0  85807-4 0  9990","EPHEMERIS_TYPE":"0","MEAN_ANOMALY":"300.9186","PERIOD":"95.593","MEAN_MOTION_DOT":"0.00000997","CENTER_NAME":"EARTH","TIME_SYSTEM":"UTC","ELEMENT_SET_NO":"999","RCS_SIZE":"LARGE","SEMIMAJOR_AXIS":"6925.372","MEAN_ELEMENT_THEORY":"SGP4","MEAN_MOTION":"15.06392269","FILE":"3453038","EPOCH":"2022-05-19T02:16:05.050560","INCLINATION":"53.0564","GP_ID":"203944951","ECCENTRICITY":"0.00016000","APOAPSIS":"548.345","LAUNCH_DATE":"2021-03-11","MEAN_MOTION_DDOT":"0.0000000000000","OBJECT_TYPE":"PAYLOAD","COUNTRY_CODE":"US"},{"CENTER_NAME":"EARTH","TIME_SYSTEM":"UTC","ELEMENT_SET_NO":"999","RCS_SIZE":"LARGE","MEAN_ELEMENT_THEORY":"SGP4","SEMIMAJOR_AXIS":"6925.362","MEAN_MOTION":"15.06395702","FILE":"3453957","EPOCH":"2022-05-19T23:54:29.168352","INCLINATION":"53.0552","GP_ID":"203994574","ECCENTRICITY":"0.00021500","LAUNCH_DATE":"2021-03-11","APOAPSIS":"548.716","MEAN_MOTION_DDOT":"0.0000000000000","OBJECT_TYPE":"PAYLOAD","COUNTRY_CODE":"US","BSTAR":"-0.00021968000000","ARG_OF_PERICENTER":"45.8281","OBJECT_NAME":"STARLINK-2435","REV_AT_EPOCH":"6673","DECAY_DATE":null,"RA_OF_ASC_NODE":"15.2061","REF_FRAME":"TEME","PERIAPSIS":"545.738","CLASSIFICATION_TYPE":"U","OBJECT_ID":"2021-018BJ","SITE":"AFETR","NORAD_CAT_ID":"47843","TLE_LINE2":"2 47843  53.0552  15.2061 0002150  45.8281 314.2884 15.06395702 66739","TLE_LINE1":"1 47843U 21018BJ  22139.99617093 -.00003552  00000-0 -21968-3 0  9995","EPHEMERIS_TYPE":"0","MEAN_ANOMALY":"314.2884","PERIOD":"95.592","MEAN_MOTION_DOT":"-0.00003552"},{"EPHEMERIS_TYPE":"0","OBJECT_ID":"2021-018BK","SITE":"AFETR","NORAD_CAT_ID":"47844","TLE_LINE1":"1 47844U 21018BK  22140.06113871  .00004121  00000-0  29550-3 0  9997","TLE_LINE2":"2 47844  53.0560   9.9154 0001349  88.3945 271.7198 15.06389325 66818","MEAN_MOTION_DOT":"0.00004121","MEAN_ANOMALY":"271.7198","PERIOD":"95.593","OBJECT_NAME":"STARLINK-2446","REV_AT_EPOCH":"6681","BSTAR":"0.00029550000000","ARG_OF_PERICENTER":"88.3945","REF_FRAME":"TEME","PERIAPSIS":"546.312","CLASSIFICATION_TYPE":"U","DECAY_DATE":null,"RA_OF_ASC_NODE":"9.9154","LAUNCH_DATE":"2021-03-11","APOAPSIS":"548.181","OBJECT_TYPE":"PAYLOAD","COUNTRY_CODE":"US","MEAN_MOTION_DDOT":"0.0000000000000","ELEMENT_SET_NO":"999","RCS_SIZE":"LARGE","CENTER_NAME":"EARTH","TIME_SYSTEM":"UTC","GP_ID":"203994586","ECCENTRICITY":"0.00013490","MEAN_ELEMENT_THEORY":"SGP4","SEMIMAJOR_AXIS":"6925.381","MEAN_MOTION":"15.06389325","FILE":"3453969","EPOCH":"2022-05-20T01:28:02.384544","INCLINATION":"53.0560"}];
